2023-104A               
1 57424U 23104A   26065.78279804  .00015492  00000+0  48200-3 0  9993
2 57424  97.2792 135.5625 0009333 122.1915 238.0234 15.33350758146346
STARLINK-30815          
1 58164U 23166Q   26068.72176011 -.00000206  00000+0  51532-5 0  9998
2 58164  53.1597 219.5075 0000899 113.0004 247.1092 15.30184716133187
